LIME                    
1 62648U 25009AR  26068.73906781  .00013254  00000+0  47723-3 0  9995
2 62648  97.3985 151.4831 0001635  35.9029 324.2320 15.28703313 63766
STARLINK-36041          
1 66798U 25278H   26068.14921854  .00034207  00000+0  12473-2 0  9990
2 66798  42.9985 117.6592 0001037 258.8643 101.2092 15.27568603 15120
