[{"OBJECT_NAME":"LIME","OBJECT_ID":"2025-009AR","EPOCH":"2026-03-09T17:44:15.459648","MEAN_MOTION":15.28703313,"ECCENTRICITY":0.00016347,"INCLINATION":97.3985,"RA_OF_ASC_NODE":151.4831,"ARG_OF_PERICENTER":35.9029,"MEAN_ANOMALY":324.232,"EPHEMERIS_TYPE":0,"CLASSIFICATION_TYPE":"U","NORAD_CAT_ID":62648,"ELEMENT_SET_NO":999,"REV_AT_EPOCH":6376,"BSTAR":0.00047722827,"MEAN_MOTION_DOT":0.00013254,"MEAN_MOTION_DDOT":0},{"OBJECT_NAME":"STARLINK-36041","OBJECT_ID":"2025-278H","EPOCH":"2026-03-09T03:34:52.481856","MEAN_MOTION":15.27568603,"ECCENTRICITY":0.00010371,"INCLINATION":42.9985,"RA_OF_ASC_NODE":117.6592,"ARG_OF_PERICENTER":258.8643,"MEAN_ANOMALY":101.2092,"EPHEMERIS_TYPE":0,"CLASSIFICATION_TYPE":"U","NORAD_CAT_ID":66798,"ELEMENT_SET_NO":999,"REV_AT_EPOCH":1512,"BSTAR":0.0012472554,"MEAN_MOTION_DOT":0.00034207,"MEAN_MOTION_DDOT":0}]
